OBJECT_NAME,OBJECT_ID,EPOCH,MEAN_MOTION,ECCENTRICITY,INCLINATION,RA_OF_ASC_NODE,ARG_OF_PERICENTER,MEAN_ANOMALY,EPHEMERIS_TYPE,CLASSIFICATION_TYPE,NORAD_CAT_ID,ELEMENT_SET_NO,REV_AT_EPOCH,BSTAR,MEAN_MOTION_DOT,MEAN_MOTION_DDOT
HST,1990-037B,2026-07-21T05:40:19.896960,15.31099653,.00020896,28.4721,207.7932,161.9794,198.0877,0,U,20580,999,79379,.12921055E-3,.4226E-4,0
POLAR,1996-013A,2026-07-19T09:17:19.718592,1.29846046,.65026628,79.8986,226.6697,207.9705,92.0144,0,U,23802,999,14527,0,.162E-5,0
SWAS,1998-071A,2026-07-21T03:18:52.532064,15.09772379,.00075172,69.8945,139.9554,223.7505,136.3065,0,U,25560,999,50239,.14555358E-3,.2251E-4,0
CXO,1999-040B,2026-07-22T18:10:54.546528,0.37802015,.77765115,56.6521,115.7083,309.9609,0.5640,0,U,25867,999,1745,0,.588E-5,0
XMM-NEWTON,1999-066A,2026-07-20T06:14:17.625408,0.50127970,.46645709,64.3074,282.5600,64.3171,0.0365,0,U,25989,999,2316,0,-.7E-7,0
TERRA,1999-068A,2026-07-21T06:13:07.029696,14.61126820,.0003618,97.9436,250.4512,110.9634,313.8018,0,U,25994,999,41458,.58785507E-4,.245E-5,0
CLUSTER II-FM7 (SAMBA),2000-041A,2026-07-20T14:26:37.417344,0.44850593,.90917143,149.8020,56.9135,274.4939,359.4480,0,U,26410,999,2046,0,.10308E-3,-.3041523E-5
CLUSTER II-FM8 (TANGO),2000-045B,2026-07-21T04:54:51.498144,0.44427498,.90962151,149.9916,58.1960,275.6329,2.0911,0,U,26464,999,2046,0,.10744E-3,-.2728858E-5
ODIN,2001-007A,2026-07-21T02:12:04.109472,15.93222881,.00049772,97.3688,245.5905,159.5979,200.5496,0,U,26702,999,39476,.1155004E-2,.404603E-2,.65644582E-4
TIMED,2001-055B,2026-07-21T01:29:23.907264,14.95352863,.00023635,74.0672,166.8085,293.8666,66.2271,0,U,26998,999,33588,.7551339E-4,.794E-5,0
CORIOLIS,2003-001A,2026-07-21T07:15:07.266816,14.19952988,.00151214,98.7138,208.6674,112.8807,247.3968,0,U,27640,999,21906,.47043455E-4,.57E-6,0
SORCE,2003-004A,2026-07-21T00:12:34.769664,15.03860593,.00186791,39.9917,68.6867,293.4407,66.4424,0,U,27651,999,27699,.12667254E-3,.1627E-4,0
MOST,2003-031D,2026-07-21T00:02:24.230112,14.21328536,.00104208,98.7055,209.2568,149.0494,211.1300,0,U,27843,999,19551,.34027539E-4,.31E-6,0
SCISAT 1,2003-036A,2026-07-21T04:37:22.296288,14.81483396,.0007053,73.9301,103.7789,170.3636,189.7677,0,U,27858,999,23648,.55025876E-4,.395E-5,0
SWIFT,2004-047A,2026-07-21T07:20:25.953216,15.71660712,.00026584,20.5518,281.0531,91.9964,268.0787,0,U,28485,999,19223,.36175572E-3,.50096E-3,0
HINODE (SOLAR-B),2006-041A,2026-07-21T01:06:53.547840,14.68663006,.00175218,98.0548,217.7002,175.7523,184.3834,0,U,29479,999,5984,.80966963E-4,.423E-5,0
SHIJIAN-6 02A (SJ-6 02A),2006-046A,2026-07-21T06:09:34.177248,15.17287873,.00038264,97.6344,243.5832,50.0555,310.1014,0,U,29505,999,7743,.26813894E-3,.5274E-4,0
SHIJIAN-6 02B (SJ-6 02B),2006-046B,2026-07-21T08:03:00.747648,15.01442943,.00126332,97.7142,231.1821,313.9868,46.0314,0,U,29506,999,7586,.28337394E-4,.305E-5,0
FGRST (GLAST),2008-029A,2026-07-20T16:28:15.227040,15.24095088,.00080921,25.5829,331.8542,5.5378,354.5249,0,U,33053,999,80,.65848271E-4,.1982E-4,0
SDO,2010-005A,2026-07-21T04:42:27.771264,1.00277625,.00016475,34.7200,85.8242,43.2128,138.3850,0,U,36395,999,6040,0,-.97E-6,0
CRYOSAT 2,2010-013A,2026-07-21T06:22:55.559712,14.51899565,.00024769,92.0354,285.5863,98.8097,261.3390,0,U,36508,999,86302,.13783535E-4,.58E-6,0
X-SAT,2011-015C,2026-07-21T06:36:02.502144,14.25214678,.00128063,98.3540,177.6790,241.0823,118.9073,0,U,37389,999,79253,.26559444E-4,.21E-6,0
GCOM-W1 (SHIZUKU),2012-025A,2026-07-20T19:37:38.262144,14.57092982,.00012671,98.2024,141.8648,79.7574,340.0399,0,U,38337,999,75393,.58301014E-4,.217E-5,0
NUSTAR,2012-031A,2026-07-21T08:00:01.999872,15.09068806,.00092184,6.0262,137.9323,256.6799,69.2123,0,U,38358,999,130,.10827957E-2,.18595E-3,0
NEOSSAT,2013-009D,2026-07-21T05:11:38.905728,14.35836964,.00117802,98.4195,21.4427,140.3157,219.8893,0,U,39089,999,70162,.45634472E-4,.89E-6,0
BRITE-AUSTRIA,2013-009F,2026-07-21T01:24:40.119552,14.36554034,.00110636,98.4014,20.6592,134.4751,225.7342,0,U,39091,999,70191,.4979663E-4,.104E-5,0
IRIS,2013-033A,2026-07-21T02:29:54.085344,14.85944692,.00237318,97.9319,41.2741,204.9393,155.0677,0,U,39197,999,70541,.84909812E-4,.688E-5,0
HISAKI (SPRINT-A),2013-049A,2026-07-20T22:23:44.222208,13.55547058,.01369595,29.7218,48.4412,290.3721,68.2186,0,U,39253,999,63600,.31793699E-4,.89E-6,0
CASSIOPE,2013-055A,2026-07-21T05:51:38.518848,15.27618671,.02818266,80.9141,25.2657,307.3318,50.2532,0,U,39265,999,67286,.18427871E-3,.17208E-3,-.50396E-6
STSAT-3,2013-066G,2026-07-21T06:28:04.233216,15.02911979,.00087574,97.6214,171.6081,280.8304,79.1936,0,U,39422,999,68932,.19185988E-3,.2517E-4,0
